{
  "type": "FeatureCollection",
  "features": [
    {
      "type": "Feature",
      "properties": {
        "norad_id": 24876,
        "name": "GPS BIIR-2  (PRN 13)",
        "group": "gps-ops",
        "lat": 37.5965508579242,
        "lon": -105.71795490540737,
        "alt_km": 20111.46771657138,
        "timestamp": "2025-12-16T21:38:57.433171+00:00",
        "meta_object_name": "GPS BIIR-2  (PRN 13)",
        "meta_object_id": "1997-035A",
        "meta_epoch": "2025-12-15T17:22:46.609248",
        "meta_mean_motion": 2.0056369,
        "meta_eccentricity": 0.00967808,
        "meta_inclination": 55.8966,
        "meta_ra_of_asc_node": 105.7521,
        "meta_arg_of_pericenter": 56.9888,
        "meta_mean_anomaly": 303.9092,
        "meta_ephemeris_type": 0,
        "meta_classification_type": "U",
        "meta_norad_cat_id": 24876,
        "meta_element_set_no": 999,
        "meta_rev_at_epoch": 20827,
        "meta_bstar": 0,
        "meta_mean_motion_dot": -1.8e-07,
        "meta_mean_motion_ddot": 0,
        "tle_line1": "1 24876U 97035A   25349.72415057 -.00000018  00000+0  00000+0 0  9993",
        "tle_line2": "2 24876  55.8966 105.7521 0096780  56.9888 303.9092  2.00563690208279"
      },
      "geometry": {
        "type": "Point",
        "coordinates": [
          -105.71795490540737,
          37.5965508579242
        ]
      }
    },
    {
      "type": "Feature",
      "properties": {
        "norad_id": 26360,
        "name": "GPS BIIR-4  (PRN 20)",
        "group": "gps-ops",
        "lat": -34.16020674987166,
        "lon": -124.99520148429545,
        "alt_km": 20088.240952640244,
        "timestamp": "2025-12-16T21:38:57.433198+00:00",
        "meta_object_name": "GPS BIIR-4  (PRN 20)",
        "meta_object_id": "2000-025A",
        "meta_epoch": "2025-12-16T02:31:28.682976",
        "meta_mean_motion": 2.00567527,
        "meta_eccentricity": 0.00388818,
        "meta_inclination": 55.0472,
        "meta_ra_of_asc_node": 26.7017,
        "meta_arg_of_pericenter": 242.3164,
        "meta_mean_anomaly": 125.7011,
        "meta_ephemeris_type": 0,
        "meta_classification_type": "U",
        "meta_norad_cat_id": 26360,
        "meta_element_set_no": 999,
        "meta_rev_at_epoch": 18760,
        "meta_bstar": 0,
        "meta_mean_motion_dot": -8.7e-07,
        "meta_mean_motion_ddot": 0,
        "tle_line1": "1 26360U 00025A   25350.10519309 -.00000087  00000+0  00000+0 0  9991",
        "tle_line2": "2 26360  55.0472  26.7017 0038881 242.3164 125.7011  2.00567527187608"
      },
      "geometry": {
        "type": "Point",
        "coordinates": [
          -124.99520148429545,
          -34.16020674987166
        ]
      }
    },
    {
      "type": "Feature",
      "properties": {
        "norad_id": 26407,
        "name": "GPS BIIR-5  (PRN 22)",
        "group": "gps-ops",
        "lat": 47.42463501070086,
        "lon": -87.66322829844825,
        "alt_km": 20351.208684690857,
        "timestamp": "2025-12-16T21:38:57.433214+00:00",
        "meta_object_name": "GPS BIIR-5  (PRN 22)",
        "meta_object_id": "2000-040A",
        "meta_epoch": "2025-12-16T01:22:34.275360",
        "meta_mean_motion": 2.00568075,
        "meta_eccentricity": 0.01258355,
        "meta_inclination": 54.89,
        "meta_ra_of_asc_node": 222.437,
        "meta_arg_of_pericenter": 301.8664,
        "meta_mean_anomaly": 231.2239,
        "meta_ephemeris_type": 0,
        "meta_classification_type": "U",
        "meta_norad_cat_id": 26407,
        "meta_element_set_no": 999,
        "meta_rev_at_epoch": 18627,
        "meta_bstar": 0,
        "meta_mean_motion_dot": 5.9e-07,
        "meta_mean_motion_ddot": 0,
        "tle_line1": "1 26407U 00040A   25350.05734115  .00000059  00000+0  00000+0 0  9996",
        "tle_line2": "2 26407  54.8900 222.4370 0125835 301.8664 231.2239  2.00568075186278"
      },
      "geometry": {
        "type": "Point",
        "coordinates": [
          -87.66322829844825,
          47.42463501070086
        ]
      }
    },
    {
      "type": "Feature",
      "properties": {
        "norad_id": 27663,
        "name": "GPS BIIR-8  (PRN 16)",
        "group": "gps-ops",
        "lat": -16.1126228225177,
        "lon": 53.92528389351831,
        "alt_km": 20514.83721250511,
        "timestamp": "2025-12-16T21:38:57.433227+00:00",
        "meta_object_name": "GPS BIIR-8  (PRN 16)",
        "meta_object_id": "2003-005A",
        "meta_epoch": "2025-12-15T15:27:32.010336",
        "meta_mean_motion": 2.00570814,
        "meta_eccentricity": 0.01475727,
        "meta_inclination": 54.9227,
        "meta_ra_of_asc_node": 222.2628,
        "meta_arg_of_pericenter": 51.8406,
        "meta_mean_anomaly": 318.7887,
        "meta_ephemeris_type": 0,
        "meta_classification_type": "U",
        "meta_norad_cat_id": 27663,
        "meta_element_set_no": 999,
        "meta_rev_at_epoch": 16763,
        "meta_bstar": 0,
        "meta_mean_motion_dot": 5.5e-07,
        "meta_mean_motion_ddot": 0,
        "tle_line1": "1 27663U 03005A   25349.64412049  .00000055  00000+0  00000+0 0  9993",
        "tle_line2": "2 27663  54.9227 222.2628 0147572  51.8406 318.7887  2.00570814167631"
      },
      "geometry": {
        "type": "Point",
        "coordinates": [
          53.92528389351831,
          -16.1126228225177
        ]
      }
    },
    {
      "type": "Feature",
      "properties": {
        "norad_id": 28190,
        "name": "GPS BIIR-11 (PRN 19)",
        "group": "gps-ops",
        "lat": -2.201570688612803,
        "lon": -78.50994651349683,
        "alt_km": 20467.036327906015,
        "timestamp": "2025-12-16T21:38:57.433240+00:00",
        "meta_object_name": "GPS BIIR-11 (PRN 19)",
        "meta_object_id": "2004-009A",
        "meta_epoch": "2025-12-14T15:49:47.343936",
        "meta_mean_motion": 2.00560762,
        "meta_eccentricity": 0.01083648,
        "meta_inclination": 54.9839,
        "meta_ra_of_asc_node": 283.1415,
        "meta_arg_of_pericenter": 167.6892,
        "meta_mean_anomaly": 10.6801,
        "meta_ephemeris_type": 0,
        "meta_classification_type": "U",
        "meta_norad_cat_id": 28190,
        "meta_element_set_no": 999,
        "meta_rev_at_epoch": 15924,
        "meta_bstar": 0,
        "meta_mean_motion_dot": -7.9e-07,
        "meta_mean_motion_ddot": 0,
        "tle_line1": "1 28190U 04009A   25348.65957574 -.00000079  00000+0  00000+0 0  9998",
        "tle_line2": "2 28190  54.9839 283.1415 0108364 167.6892  10.6801  2.00560762159240"
      },
      "geometry": {
        "type": "Point",
        "coordinates": [
          -78.50994651349683,
          -2.201570688612803
        ]
      }
    },
    {
      "type": "Feature",
      "properties": {
        "norad_id": 28474,
        "name": "GPS BIIR-13 (PRN 02)",
        "group": "gps-ops",
        "lat": 45.11810646273797,
        "lon": 16.43316648797957,
        "alt_km": 20327.230269002626,
        "timestamp": "2025-12-16T21:38:57.433252+00:00",
        "meta_object_name": "GPS BIIR-13 (PRN 02)",
        "meta_object_id": "2004-045A",
        "meta_epoch": "2025-12-15T08:55:34.317408",
        "meta_mean_motion": 2.00569721,
        "meta_eccentricity": 0.01708177,
        "meta_inclination": 55.2393,
        "meta_ra_of_asc_node": 332.2998,
        "meta_arg_of_pericenter": 309.3676,
        "meta_mean_anomaly": 83.5283,
        "meta_ephemeris_type": 0,
        "meta_classification_type": "U",
        "meta_norad_cat_id": 28474,
        "meta_element_set_no": 999,
        "meta_rev_at_epoch": 15474,
        "meta_bstar": 0,
        "meta_mean_motion_dot": -9.1e-07,
        "meta_mean_motion_ddot": 0,
        "tle_line1": "1 28474U 04045A   25349.37192497 -.00000091  00000+0  00000+0 0  9992",
        "tle_line2": "2 28474  55.2393 332.2998 0170817 309.3676  83.5283  2.00569721154740"
      },
      "geometry": {
        "type": "Point",
        "coordinates": [
          16.43316648797957,
          45.11810646273797
        ]
      }
    },
    {
      "type": "Feature",
      "properties": {
        "norad_id": 28874,
        "name": "GPS BIIRM-1 (PRN 17)",
        "group": "gps-ops",
        "lat": 14.893541828092996,
        "lon": -68.77112642642413,
        "alt_km": 20141.66896219613,
        "timestamp": "2025-12-16T21:38:57.433264+00:00",
        "meta_object_name": "GPS BIIRM-1 (PRN 17)",
        "meta_object_id": "2005-038A",
        "meta_epoch": "2025-12-15T21:22:37.236864",
        "meta_mean_motion": 2.00578274,
        "meta_eccentricity": 0.01315557,
        "meta_inclination": 55.0291,
        "meta_ra_of_asc_node": 280.574,
        "meta_arg_of_pericenter": 293.6034,
        "meta_mean_anomaly": 72.8859,
        "meta_ephemeris_type": 0,
        "meta_classification_type": "U",
        "meta_norad_cat_id": 28874,
        "meta_element_set_no": 999,
        "meta_rev_at_epoch": 14816,
        "meta_bstar": 0,
        "meta_mean_motion_dot": -6.8e-07,
        "meta_mean_motion_ddot": 0,
        "tle_line1": "1 28874U 05038A   25349.89070876 -.00000068  00000+0  00000+0 0  9996",
        "tle_line2": "2 28874  55.0291 280.5740 0131555 293.6034  72.8859  2.00578274148160"
      },
      "geometry": {
        "type": "Point",
        "coordinates": [
          -68.77112642642413,
          14.893541828092996
        ]
      }
    }
  ]
}